{
  "norad_id": 49773,
  "name": "GLOBAL-13",
  "history": [
    {
      "epoch": "2026-03-28T08:46:12.671616Z",
      "apogee_km": 438.00875909235765,
      "perigee_km": 436.8308945615463,
      "latitude_deg": 2.011348103876914e-05,
      "longitude_deg": 120.58660208285535,
      "height_km": 438.67564380627624,
      "semi_major_axis_km": 6815.556826826952,
      "eccentricity": 8.641e-05,
      "inclination_deg": 53.1979,
      "raan_deg": 77.9263,
      "arg_perigee_deg": 126.212,
      "mean_anomaly_deg": 233.8967,
      "mean_motion_rev_day": 15.42946072
    },
    {
      "epoch": "2026-03-29T04:58:46.418880Z",
      "apogee_km": 437.88217624436766,
      "perigee_km": 436.68538835499567,
      "latitude_deg": 1.908901041611574e-07,
      "longitude_deg": 172.63140401028016,
      "height_km": 438.54565764191665,
      "semi_major_axis_km": 6815.420782299681,
      "eccentricity": 8.78e-05,
      "inclination_deg": 53.1978,
      "raan_deg": 73.9417,
      "arg_perigee_deg": 126.2681,
      "mean_anomaly_deg": 233.8407,
      "mean_motion_rev_day": 15.42992271
    },
    {
      "epoch": "2026-03-30T04:17:50.269056Z",
      "apogee_km": 437.7498675349925,
      "perigee_km": 436.5081260703764,
      "latitude_deg": 2.204416987208989e-05,
      "longitude_deg": 177.3093530824112,
      "height_km": 438.4440656626032,
      "semi_major_axis_km": 6815.265996802685,
      "eccentricity": 9.11e-05,
      "inclination_deg": 53.1977,
      "raan_deg": 69.3433,
      "arg_perigee_deg": 130.9783,
      "mean_anomaly_deg": 229.1303,
      "mean_motion_rev_day": 15.43044837
    },
    {
      "epoch": "2026-03-30T05:51:06.417792Z",
      "apogee_km": 437.73850073116046,
      "perigee_km": 436.49580728871933,
      "latitude_deg": -1.7256813848273128e-06,
      "longitude_deg": 153.62180861078917,
      "height_km": 438.43095515550516,
      "semi_major_axis_km": 6815.25415400994,
      "eccentricity": 9.117e-05,
      "inclination_deg": 53.1978,
      "raan_deg": 69.0369,
      "arg_perigee_deg": 130.7841,
      "mean_anomaly_deg": 229.3245,
      "mean_motion_rev_day": 15.43048859
    },
    {
      "epoch": "2026-03-30T08:57:38.704032Z",
      "apogee_km": 437.70994728964433,
      "perigee_km": 436.482796368713,
      "latitude_deg": 1.3891463609935272e-05,
      "longitude_deg": 106.24661358441737,
      "height_km": 438.4065122720756,
      "semi_major_axis_km": 6815.233371829178,
      "eccentricity": 9.003e-05,
      "inclination_deg": 53.1977,
      "raan_deg": 68.4239,
      "arg_perigee_deg": 130.9585,
      "mean_anomaly_deg": 229.15,
      "mean_motion_rev_day": 15.43055917
    },
    {
      "epoch": "2026-03-30T22:57:03.214944Z",
      "apogee_km": 437.64835687912364,
      "perigee_km": 436.3348089960482,
      "latitude_deg": -2.655993224252189e-05,
      "longitude_deg": -106.938899350501,
      "height_km": 438.3850566959799,
      "semi_major_axis_km": 6815.128582937586,
      "eccentricity": 9.637e-05,
      "inclination_deg": 53.1977,
      "raan_deg": 65.6651,
      "arg_perigee_deg": 137.6626,
      "mean_anomaly_deg": 222.4455,
      "mean_motion_rev_day": 15.43091506
    },
    {
      "epoch": "2026-03-31T05:10:07.101408Z",
      "apogee_km": 437.5886620375577,
      "perigee_km": 436.32378073566815,
      "latitude_deg": 1.1317722847554788e-05,
      "longitude_deg": 158.31388181879885,
      "height_km": 438.32469267708336,
      "semi_major_axis_km": 6815.093221386613,
      "eccentricity": 9.28e-05,
      "inclination_deg": 53.198,
      "raan_deg": 64.4394,
      "arg_perigee_deg": 136.7208,
      "mean_anomaly_deg": 223.3872,
      "mean_motion_rev_day": 15.43103516
    },
    {
      "epoch": "2026-04-01T07:35:36.439872Z",
      "apogee_km": 437.38795778472104,
      "perigee_km": 436.1912566724923,
      "latitude_deg": 3.609107151913954e-05,
      "longitude_deg": 115.64522949999045,
      "height_km": 438.1516677129288,
      "semi_major_axis_km": 6814.926607228606,
      "eccentricity": 8.78e-05,
      "inclination_deg": 53.1986,
      "raan_deg": 59.2282,
      "arg_perigee_deg": 139.3329,
      "mean_anomaly_deg": 220.7744,
      "mean_motion_rev_day": 15.43160106
    }
  ]
}